OBJECT_NAME,OBJECT_ID,EPOCH,MEAN_MOTION,ECCENTRICITY,INCLINATION,RA_OF_ASC_NODE,ARG_OF_PERICENTER,MEAN_ANOMALY,EPHEMERIS_TYPE,CLASSIFICATION_TYPE,NORAD_CAT_ID,ELEMENT_SET_NO,REV_AT_EPOCH,BSTAR,MEAN_MOTION_DOT,MEAN_MOTION_DDOT
GALAXY 3C (G-3C),2002-030A,2026-06-06T21:34:34.698144,1.00271677,.00018876,3.7036,78.1133,30.7345,15.2584,0,U,27445,999,4639,0,-.139E-5,0
INTELSAT 906 (IS-906),2002-041A,2026-06-06T20:37:12.878112,1.00271022,.00047391,5.7777,73.0464,356.9075,198.7563,0,U,27513,999,8692,0,.26E-6,0
NIMIQ 2,2002-062A,2026-06-06T09:19:37.377120,1.00272105,.00058354,9.4209,57.0140,15.1189,213.3871,0,U,27632,999,4407,0,-.58E-6,0
USA 167,2003-008A,2026-06-06T08:19:58.422144,1.00274349,.00038662,10.9394,43.5041,316.3907,258.1291,0,U,27691,999,666,0,.13E-6,0
USA 169 (MILSTAR-2 4),2003-012A,2026-06-06T14:51:04.502304,1.00271075,.0101145,12.3332,29.9261,8.8170,231.1972,0,U,27711,999,3284,0,-.224E-5,0
ASIASAT 4,2003-014A,2026-06-06T15:10:38.919360,1.00273038,.00028992,4.6785,75.8760,1.8424,192.5256,0,U,27718,999,4519,0,-.209E-5,0
HELLAS-SAT 2,2003-020A,2026-06-06T13:25:24.386592,1.00271700,.00029544,7.3277,68.0110,4.8136,13.4975,0,U,27811,999,4274,0,-.72E-6,0
THURAYA-2,2003-026A,2026-06-06T18:53:43.668672,1.00272603,.00031964,8.8252,32.0249,3.8583,186.7412,0,U,27825,999,8424,0,.136E-5,0
OPTUS C1,2003-028B,2026-06-06T14:12:27.110880,1.00270430,.00057552,6.8626,69.5374,1.8827,192.4097,0,U,27831,999,5295,0,-.139E-5,0
USA 170,2003-040A,2026-06-06T20:46:37.348320,1.00277373,.00020885,10.4778,48.0451,32.6513,150.5218,0,U,27875,999,3289,0,.137E-5,0
GALAXY 13 (HORIZONS-1),2003-044A,2026-06-06T17:53:35.691936,1.00272528,.00020807,1.3933,83.9836,345.9000,303.6550,0,U,27954,999,4646,0,.146E-5,0
YAMAL 202,2003-053A,2026-06-06T14:27:34.666848,1.00272900,.00033507,6.3180,71.0638,346.0025,218.4354,0,U,28089,999,8259,0,-.67E-6,0
UFO 11 (USA 174),2003-057A,2026-06-06T16:22:07.553568,1.00274260,.00024193,8.9326,33.8844,36.7131,145.5762,0,U,28117,999,8234,0,-.94E-6,0
USA 176 (DSP 22),2004-004A,2026-06-06T13:13:18.045984,1.00409257,.0001106,12.0475,26.1476,307.4789,67.2746,0,U,28158,999,3283,0,-.286E-5,0
ABS-4 (MOBISAT-1),2004-007A,2026-06-06T20:36:20.461824,1.00270872,.00051245,6.0167,72.1315,2.5645,190.6117,0,U,28184,999,5223,0,.52E-6,0
INTELSAT 10-02,2004-022A,2026-06-06T22:01:19.761312,1.00268840,.00006386,0.0099,326.9651,193.5941,64.0941,0,U,28358,999,8045,0,.2E-7,0
ANIK F2,2004-027A,2026-06-06T21:29:57.640992,1.00271928,.00044026,3.2596,79.5832,1.7099,25.3781,0,U,28378,999,4116,0,-.36E-6,0
AMC-15,2004-041A,2026-06-06T21:31:42.472704,1.00272117,.00023786,0.0278,307.0310,130.7242,35.4351,0,U,28446,999,7920,0,-.75E-6,0
NSS-10,2005-003A,2026-06-06T03:01:15.147264,1.00272615,.0003118,6.4213,70.5876,1.9719,189.8556,0,U,28526,999,5304,0,-.239E-5,0
INMARSAT 4-F1,2005-009A,2026-06-06T21:09:49.602240,1.00272509,.00028127,5.1532,42.7362,35.9309,312.2072,0,U,28628,999,7756,0,.45E-6,0
DIRECTV 8,2005-019A,2026-06-06T14:37:04.252800,1.00269735,.0003017,0.0168,349.7812,90.9190,274.5411,0,U,28659,999,7696,0,0,0
GALAXY 28 (G-28),2005-022A,2026-06-06T20:11:20.106816,1.00270730,.00027738,3.2731,79.0560,355.9734,95.9444,0,U,28702,999,5187,0,-.187E-5,0
THAICOM 4,2005-028A,2026-06-06T22:35:45.333024,1.00271335,.0002001,0.2181,86.0591,346.8985,280.8468,0,U,28786,999,5214,0,-.348E-5,0
ANIK F1R,2005-036A,2026-06-06T16:23:04.777152,1.00272779,.00044025,4.2851,76.7099,2.7314,314.1480,0,U,28868,999,4634,0,-.62E-6,0
SYRACUSE 3A,2005-041B,2026-06-06T21:35:47.052096,1.00270422,.00031086,4.6176,75.9619,337.7617,212.1723,0,U,28885,999,7564,0,.143E-5,0
INMARSAT 4-F2,2005-044A,2026-06-06T22:42:37.175040,1.00273241,.00032135,5.0804,43.7092,32.2994,303.4941,0,U,28899,999,7541,0,-.247E-5,0
METEOSAT-9 (MSG-2),2005-049B,2026-06-06T20:31:58.380384,1.00268262,.00017945,9.3374,54.2678,349.1342,205.5679,0,U,28912,999,689,0,.136E-5,0
EUTELSAT 174A,2005-052A,2026-06-06T21:08:42.209376,1.00269684,.00064687,4.1926,76.6535,359.8413,309.9736,0,U,28924,999,5222,0,.22E-6,0
ECHOSTAR 10,2006-003A,2026-06-06T21:30:12.616704,1.00271495,.00021766,0.0166,348.4428,55.4714,63.7752,0,U,28935,999,7436,0,-.42E-6,0
SPAINSAT,2006-007A,2026-06-06T09:01:46.367040,1.00273201,.00050056,0.5343,86.7303,347.4806,285.8502,0,U,28945,999,7411,0,-.203E-5,0
JCSAT-5A,2006-010A,2026-06-06T22:39:22.485600,1.00271192,.00021413,1.0820,84.3330,7.5636,275.3536,0,U,29045,999,7366,0,-.314E-5,0
ASTRA 1KR,2006-012A,2026-06-06T22:07:04.209600,1.00272032,.00036126,0.4465,83.2042,349.7900,173.1028,0,U,29055,999,4559,0,.133E-5,0
