GALAXY 3C (G-3C)        
1 27445U 02030A   26157.89901271 -.00000139  00000+0  00000+0 0  9997
2 27445   3.7036  78.1133 0001887  30.7345  15.2584  1.00271677 46390
INTELSAT 906 (IS-906)   
1 27513U 02041A   26157.85917683  .00000026  00000+0  00000+0 0  9999
2 27513   5.7777  73.0464 0004739 356.9075 198.7563  1.00271022 86924
NIMIQ 2                 
1 27632U 02062A   26157.38862705 -.00000058  00000+0  00000+0 0  9992
2 27632   9.4209  57.0140 0005835  15.1189 213.3871  1.00272105 44077
USA 167                 
1 27691U 03008A   26157.34720396  .00000013  00000+0  00000+0 0  9993
2 27691  10.9394  43.5041 0003866 316.3907 258.1291  1.00274349  6668
USA 169 (MILSTAR-2 4)   
1 27711U 03012A   26157.61880211 -.00000224  00000+0  00000+0 0  9999
2 27711  12.3332  29.9261 0101145   8.8170 231.1972  1.00271075 32844
ASIASAT 4               
1 27718U 03014A   26157.63239490 -.00000209  00000+0  00000+0 0  9990
2 27718   4.6785  75.8760 0002899   1.8424 192.5256  1.00273038 45190
HELLAS-SAT 2            
1 27811U 03020A   26157.55931003 -.00000072  00000+0  00000+0 0  9999
2 27811   7.3277  68.0110 0002954   4.8136  13.4975  1.00271700 42749
THURAYA-2               
1 27825U 03026A   26157.78731098  .00000136  00000+0  00000+0 0  9997
2 27825   8.8252  32.0249 0003196   3.8583 186.7412  1.00272603 84245
OPTUS C1                
1 27831U 03028B   26157.59198045 -.00000139  00000+0  00000+0 0  9998
2 27831   6.8626  69.5374 0005755   1.8827 192.4097  1.00270430 52953
USA 170                 
1 27875U 03040A   26157.86571005  .00000137  00000+0  00000+0 0  9998
2 27875  10.4778  48.0451 0002088  32.6513 150.5218  1.00277373 32892
GALAXY 13 (HORIZONS-1)  
1 27954U 03044A   26157.74555199  .00000146  00000+0  00000+0 0  9993
2 27954   1.3933  83.9836 0002080 345.9000 303.6550  1.00272528 46465
YAMAL 202               
1 28089U 03053A   26157.60248457 -.00000067  00000+0  00000+0 0  9997
2 28089   6.3180  71.0638 0003350 346.0025 218.4354  1.00272900 82595
UFO 11 (USA 174)        
1 28117U 03057A   26157.68203187 -.00000094  00000+0  00000+0 0  9992
2 28117   8.9326  33.8844 0002419  36.7131 145.5762  1.00274260 82345
USA 176 (DSP 22)        
1 28158U 04004A   26157.55090331 -.00000286  00000+0  00000+0 0  9994
2 28158  12.0475  26.1476 0001106 307.4789  67.2746  1.00409257 32833
ABS-4 (MOBISAT-1)       
1 28184U 04007A   26157.85857016  .00000052  00000+0  00000+0 0  9990
2 28184   6.0167  72.1315 0005124   2.5645 190.6117  1.00270872 52232
INTELSAT 10-02          
1 28358U 04022A   26157.91758983  .00000002  00000+0  00000+0 0  9995
2 28358   0.0099 326.9651 0000638 193.5941  64.0941  1.00268840 80457
ANIK F2                 
1 28378U 04027A   26157.89580603 -.00000036  00000+0  00000+0 0  9999
2 28378   3.2596  79.5832 0004402   1.7099  25.3781  1.00271928 41163
AMC-15                  
1 28446U 04041A   26157.89701936 -.00000075  00000+0  00000+0 0  9998
2 28446   0.0278 307.0310 0002378 130.7242  35.4351  1.00272117 79206
NSS-10                  
1 28526U 05003A   26157.12586976 -.00000239  00000+0  00000+0 0  9999
2 28526   6.4213  70.5876 0003118   1.9719 189.8556  1.00272615 53042
INMARSAT 4-F1           
1 28628U 05009A   26157.88182410  .00000045  00000+0  00000+0 0  9990
2 28628   5.1532  42.7362 0002812  35.9309 312.2072  1.00272509 77568
DIRECTV 8               
1 28659U 05019A   26157.60907700  .00000000  00000+0  00000+0 0  9993
2 28659   0.0168 349.7812 0003017  90.9190 274.5411  1.00269735 76965
GALAXY 28 (G-28)        
1 28702U 05022A   26157.84120494 -.00000187  00000+0  00000+0 0  9996
2 28702   3.2731  79.0560 0002773 355.9734  95.9444  1.00270730 51875
THAICOM 4               
1 28786U 05028A   26157.94149691 -.00000348  00000+0  00000+0 0  9994
2 28786   0.2181  86.0591 0002001 346.8985 280.8468  1.00271335 52140
ANIK F1R                
1 28868U 05036A   26157.68269418 -.00000062  00000+0  00000+0 0  9998
2 28868   4.2851  76.7099 0004402   2.7314 314.1480  1.00272779 46342
SYRACUSE 3A             
1 28885U 05041B   26157.89985014  .00000143  00000+0  00000+0 0  9992
2 28885   4.6176  75.9619 0003108 337.7617 212.1723  1.00270422 75648
INMARSAT 4-F2           
1 28899U 05044A   26157.94626360 -.00000247  00000+0  00000+0 0  9998
2 28899   5.0804  43.7092 0003213  32.2994 303.4941  1.00273241 75419
METEOSAT-9 (MSG-2)      
1 28912U 05049B   26157.85553681  .00000136  00000+0  00000+0 0  9990
2 28912   9.3374  54.2678 0001794 349.1342 205.5679  1.00268262  6893
EUTELSAT 174A           
1 28924U 05052A   26157.88104409  .00000022  00000+0  00000+0 0  9994
2 28924   4.1926  76.6535 0006468 359.8413 309.9736  1.00269684 52222
ECHOSTAR 10             
1 28935U 06003A   26157.89597936 -.00000042  00000+0  00000+0 0  9998
2 28935   0.0166 348.4428 0002176  55.4714  63.7752  1.00271495 74366
SPAINSAT                
1 28945U 06007A   26157.37623110 -.00000203  00000+0  00000+0 0  9999
2 28945   0.5343  86.7303 0005005 347.4806 285.8502  1.00273201 74113
JCSAT-5A                
1 29045U 06010A   26157.94401025 -.00000314  00000+0  00000+0 0  9990
2 29045   1.0820  84.3330 0002141   7.5636 275.3536  1.00271192 73665
ASTRA 1KR               
1 29055U 06012A   26157.92157650  .00000133  00000+0  00000+0 0  9991
2 29055   0.4465  83.2042 0003612 349.7900 173.1028  1.00272032 45597
